*******************************************************************************
 Revised: January 26, 2022             Saturn                               699
 
 PHYSICAL DATA:
  Mass x10^26 (kg)      = 5.6834          Density (g/cm^3)       =  0.687+-.001
  Equat. radius (1 bar) = 60268+-4 km     Polar radius (km)      = 54364+-10
  Vol. Mean Radius (km) = 58232+-6        Flattening             =  0.09796
  Geometric Albedo      = 0.47            Rocky core mass (Mc/M) =  0.1027
  Sid. rot. period (III)= 10h 39m 22.4s   Sid. rot. rate (rad/s) =  0.000163785 
  Mean solar day, hrs   =~10.656         
  GM (km^3/s^2)         = 37931206.234    GM 1-sigma (km^3/s^2)  = +- 98
  Equ. grav, ge (m/s^2) = 10.44           Pol. grav, gp (m/s^2)  = 12.14+-0.01
  Vis. magnitude V(1,0) = -8.88          
  Vis. mag. (opposition)= +0.67           Obliquity to orbit     = 26.73 deg
  Sidereal orbit period = 29.447498 yr    Sidereal orbit period  = 10755.698 d
  Mean daily motion     = 0.0334979 deg/d Mean orbit velocity    =  9.68 km/s
  Atmos. temp. (1 bar)  = 134+-4 K        Escape speed, km/s    =  35.5          
  Aroche(ice)/Rp        =  2.71           Hill's sphere rad. Rp  = 1100
                                 Perihelion  Aphelion    Mean
  Solar Constant (W/m^2)         16.8        13.6        15.1
  Maximum Planetary IR (W/m^2)    4.7         4.5         4.6
  Minimum Planetary IR (W/m^2)    4.7         4.5         4.6
*******************************************************************************


*******************************************************************************
Ephemeris / WWW_USER Tue Dec 23 07:14:48 2025 Pasadena, USA      / Horizons
*******************************************************************************
Target body name: Saturn (699)                    {source: sat441l}
Center body name: Solar System Barycenter (0)     {source: DE441}
Center-site name: BODY CENTER
*******************************************************************************
Start time      : A.D. 2006-Jun-30 00:00:00.0000 TDB
Stop  time      : A.D. 2025-Dec-23 00:00:00.0000 TDB
Step-size       : 1440 minutes
*******************************************************************************
Center geodetic : 0.0, 0.0, 0.0                   {E-lon(deg),Lat(deg),Alt(km)}
Center cylindric: 0.0, 0.0, 0.0                   {E-lon(deg),Dxy(km),Dz(km)}
Center radii    : (undefined)
Output units    : AU-D
Calendar mode   : Mixed Julian/Gregorian
Output type     : GEOMETRIC cartesian states
Output format   : 2x (pos. & vel. w/uncertainties: XYZ)
Reference frame : Ecliptic of J2000.0
*******************************************************************************
            JDTDB             Calendar Date (TDB),                      X,                      Y,                      Z,                     VX,                     VY,                     VZ,             X_s,             Y_s,             Z_s,            VX_s,            VY_s,            VZ_s,
********************************************************************************************************************************************************************************************************************************************************************************************************
$$SOE
2459372.500000000, A.D. 2021-Jun-07 00:00:00.0000,  6.145568596278847E+00, -7.826783534345033E+00, -1.085835099549755E-01,  4.076882704212779E-03,  3.432750206784509E-03, -2.221290373148461E-04,            n.a.,            n.a.,            n.a.,            n.a.,            n.a.,            n.a.,
2459373.500000000, A.D. 2021-Jun-08 00:00:00.0000,  6.149644505104137E+00, -7.823349473428861E+00, -1.088056866509780E-01,  4.074915791238537E-03,  3.435363531618098E-03, -2.222184042338493E-04,            n.a.,            n.a.,            n.a.,            n.a.,            n.a.,            n.a.,
2459374.500000000, A.D. 2021-Jun-09 00:00:00.0000,  6.153718391492927E+00, -7.819912827403661E+00, -1.090279326696922E-01,  4.072838589513062E-03,  3.437914136211197E-03, -2.222644357570731E-04,            n.a.,            n.a.,            n.a.,            n.a.,            n.a.,            n.a.,
2459375.500000000, A.D. 2021-Jun-10 00:00:00.0000,  6.157790165267226E+00, -7.816473692336954E+00, -1.092501897848463E-01,  4.070717700186613E-03,  3.440333527799215E-03, -2.222389392487532E-04,            n.a.,            n.a.,            n.a.,            n.a.,            n.a.,            n.a.,
2459376.500000000, A.D. 2021-Jun-11 00:00:00.0000,  6.161859850109345E+00, -7.813032168088712E+00, -1.094724088324961E-01,  4.068639160281736E-03,  3.442721066896310E-03, -2.222013817889480E-04,            n.a.,            n.a.,            n.a.,            n.a.,            n.a.,            n.a.,
2459377.500000000, A.D. 2021-Jun-12 00:00:00.0000,  6.165927413820473E+00, -7.809588286902266E+00, -1.096945712330665E-01,  4.066494848716119E-03,  3.445013980208560E-03, -2.221098580050884E-04,            n.a.,            n.a.,            n.a.,            n.a.,            n.a.,            n.a.,
2459378.500000000, A.D. 2021-Jun-13 00:00:00.0000,  6.169992866008889E+00, -7.806142169255850E+00, -1.099166161469112E-01,  4.064415844720503E-03,  3.447209133901513E-03, -2.219745960479015E-04,            n.a.,            n.a.,            n.a.,            n.a.,            n.a.,            n.a.,
2459379.500000000, A.D. 2021-Jun-14 00:00:00.0000,  6.174056271539293E+00, -7.802693898641241E+00, -1.101385078696382E-01,  4.062414049693103E-03,  3.449318877337158E-03, -2.218037422629831E-04,            n.a.,            n.a.,            n.a.,            n.a.,            n.a.,            n.a.,
2459380.500000000, A.D. 2021-Jun-15 00:00:00.0000,  6.178117738664317E+00, -7.799243543130973E+00, -1.103602220136564E-01,  4.060538331983724E-03,  3.451388891411896E-03, -2.216249483306828E-04,            n.a.,            n.a.,            n.a.,            n.a.,            n.a.,            n.a.,
2459381.500000000, A.D. 2021-Jun-16 00:00:00.0000,  6.182177400513984E+00, -7.795791123912982E+00, -1.105817615901156E-01,  4.058817181716666E-03,  3.453462731936955E-03, -2.214641400622569E-04,            n.a.,            n.a.,            n.a.,            n.a.,            n.a.,            n.a.,
2459382.500000000, A.D. 2021-Jun-17 00:00:00.0000,  6.186235386850697E+00, -7.792336570796505E+00, -1.108031763533743E-01,  4.057146690257383E-03,  3.455647246143438E-03, -2.213668027456043E-04,            n.a.,            n.a.,            n.a.,            n.a.,            n.a.,            n.a.,
2459383.500000000, A.D. 2021-Jun-18 00:00:00.0000,  6.190291719639544E+00, -7.788879834003941E+00, -1.110244952570141E-01,  4.055543993804736E-03,  3.457837831338875E-03, -2.212792439689293E-04,            n.a.,            n.a.,            n.a.,            n.a.,            n.a.,            n.a.,
2459384.500000000, A.D. 2021-Jun-19 00:00:00.0000,  6.194346497594148E+00, -7.785420847249860E+00, -1.112457620379297E-01,  4.054010436965763E-03,  3.460159034442315E-03, -2.212665279505600E-04,            n.a.,            n.a.,            n.a.,            n.a.,            n.a.,            n.a.,
2459385.500000000, A.D. 2021-Jun-20 00:00:00.0000,  6.198399729116764E+00, -7.781959477507466E+00, -1.114670469376772E-01,  4.052448071419356E-03,  3.462600750667570E-03, -2.213132224164622E-04,            n.a.,            n.a.,            n.a.,            n.a.,            n.a.,            n.a.,
2459386.500000000, A.D. 2021-Jun-21 00:00:00.0000,  6.202451356844930E+00, -7.778495606376451E+00, -1.116884056151295E-01,  4.050786694547097E-03,  3.465147941425831E-03, -2.214056486170209E-04,            n.a.,            n.a.,            n.a.,            n.a.,            n.a.,            n.a.,
2459387.500000000, A.D. 2021-Jun-22 00:00:00.0000,  6.206501276024223E+00, -7.775029163499456E+00, -1.119098649140591E-01,  4.049028014832722E-03,  3.467754780569066E-03, -2.215194365829529E-04,            n.a.,            n.a.,            n.a.,            n.a.,            n.a.,            n.a.,
2459388.500000000, A.D. 2021-Jun-23 00:00:00.0000,  6.210549345628119E+00, -7.771560104372471E+00, -1.121314343142604E-01,  4.047097099901014E-03,  3.470343837237431E-03, -2.216078030204002E-04,            n.a.,            n.a.,            n.a.,            n.a.,            n.a.,            n.a.,
2459389.500000000, A.D. 2021-Jun-24 00:00:00.0000,  6.214595470632943E+00, -7.768088492593212E+00, -1.123530715657385E-01,  4.045149126979492E-03,  3.472887658247754E-03, -2.216705025990355E-04,            n.a.,            n.a.,            n.a.,            n.a.,            n.a.,            n.a.,
2459390.500000000, A.D. 2021-Jun-25 00:00:00.0000,  6.218639600389379E+00, -7.764614323173648E+00, -1.125747747848152E-01,  4.043085145741825E-03,  3.475438722324893E-03, -2.217271116537931E-04,            n.a.,            n.a.,            n.a.,            n.a.,            n.a.,            n.a.,
2459391.500000000, A.D. 2021-Jun-26 00:00:00.0000,  6.222681619193470E+00, -7.761137649286040E+00, -1.127965059168802E-01,  4.040941790301153E-03,  3.477897876083510E-03, -2.217284934301607E-04,            n.a.,            n.a.,            n.a.,            n.a.,            n.a.,            n.a.,
2459392.500000000, A.D. 2021-Jun-27 00:00:00.0000,  6.226721469467261E+00, -7.757658572597372E+00, -1.130182075071197E-01,  4.038768173191223E-03,  3.480233470850522E-03, -2.216641739378092E-04,            n.a.,            n.a.,            n.a.,            n.a.,            n.a.,            n.a.,
2459393.500000000, A.D. 2021-Jun-28 00:00:00.0000,  6.230759170229809E+00, -7.754177202450089E+00, -1.132398252873562E-01,  4.036628922245940E-03,  3.482493771331753E-03, -2.215643961385738E-04,            n.a.,            n.a.,            n.a.,            n.a.,            n.a.,            n.a.,
